{
  "schema_version": 8,
  "id": "builtin-solar-system",
  "name": "Solar System",
  "epoch": "2026-06-14 00:00:00 TDB, JPL Horizons, solar-system barycentric",
  "description": "Built-in Solar System preset using SI units and JPL Horizons solar-system barycentric state vectors, parent-centered osculating orbital metadata, and preserved local physical metadata.",
  "groups": [
    {
      "id": "solar-system-group",
      "name": "Solar System",
      "kind": "planetary_system",
      "body_ids": [
        "sun"
      ]
    }
  ],
  "bodies": [
    {
      "id": "halley",
      "name": "Halley's Comet",
      "kind": "comet",
      "mass_kg": 220000000000000.0,
      "radius_m": 5500.0,
      "position_m": [
        -2904687645850.0938,
        4106284921011.094,
        -1476204963240.4312
      ],
      "velocity_mps": [
        933.6639193555459,
        247.2515489720038,
        214.834448767799
      ],
      "color": "#d8f3ff",
      "parent_id": "sun",
      "orbit": {
        "semi_major_axis_m": 2671683580252.798,
        "orbital_period_s": 2381779666.4980288,
        "eccentricity": 0.9680202990528157,
        "inclination_deg": 162.1793981945788,
        "longitude_of_ascending_node_deg": 59.35536911607554,
        "argument_of_periapsis_deg": 112.2551148390054,
        "mean_anomaly_deg": 192.343280797444,
        "epoch": "2026-06-14 00:00:00 TDB",
        "reference_plane": "J2000 ecliptic",
        "approximation_notes": "Horizons parent-centered osculating elements at the preset epoch; the committed Cartesian state remains the simulation seed."
      },
      "data_source": {
        "source_name": "JPL Horizons",
        "source_url": "https://ssd.jpl.nasa.gov/api/horizons.api?format=json&COMMAND=%2790000030%27&OBJ_DATA=NO&MAKE_EPHEM=YES&EPHEM_TYPE=ELEMENTS&CENTER=%27500%4010%27&TLIST=%272026-06-14+00%3A00%3A00%27&TLIST_TYPE=CAL&TIME_TYPE=TDB&OUT_UNITS=AU-D&CSV_FORMAT=YES&ELM_LABELS=NO",
        "catalog_id": "90000030",
        "retrieved_at": "2026-06-19",
        "citation": "JPL Horizons osculating elements and state vectors."
      }
    },
    {
      "id": "bennu",
      "name": "Bennu",
      "kind": "asteroid",
      "mass_kg": 73290000000.0,
      "radius_m": 245.03,
      "position_m": [
        -164250374408.62,
        32630804175.78842,
        4142412579.485659
      ],
      "velocity_mps": [
        -11186.133872520752,
        -25788.76247821751,
        -2683.8529349537043
      ],
      "color": "#8f877d",
      "parent_id": "sun",
      "orbit": {
        "semi_major_axis_m": 168439344450.5073,
        "orbital_period_s": 37704168.27794265,
        "eccentricity": 0.2036807444031289,
        "inclination_deg": 6.032971029306692,
        "longitude_of_ascending_node_deg": 1.966561349957301,
        "argument_of_periapsis_deg": 66.40987895852042,
        "mean_anomaly_deg": 76.57734671618331,
        "epoch": "2026-06-14 00:00:00 TDB",
        "reference_plane": "J2000 ecliptic",
        "approximation_notes": "Horizons parent-centered osculating elements at the preset epoch; the committed Cartesian state remains the simulation seed."
      },
      "data_source": {
        "source_name": "JPL Horizons",
        "source_url": "https://ssd.jpl.nasa.gov/api/horizons.api?format=json&COMMAND=%27101955%3B%27&OBJ_DATA=NO&MAKE_EPHEM=YES&EPHEM_TYPE=ELEMENTS&CENTER=%27500%4010%27&TLIST=%272026-06-14+00%3A00%3A00%27&TLIST_TYPE=CAL&TIME_TYPE=TDB&OUT_UNITS=AU-D&CSV_FORMAT=YES&ELM_LABELS=NO",
        "catalog_id": "101955;",
        "retrieved_at": "2026-06-19",
        "citation": "JPL Horizons osculating elements and state vectors."
      }
    }
  ]
}
